     2.100          NAVIGATION                              RINEX VERSION / TYPE
fic2rin                                 12/05/2014 00:22:44 PGM / RUN BY / DATE
                                                            END OF HEADER
31 14 12  4 12  0  0.0  .327975954860D-03 -.682121026330D-12  .000000000000D+00
     .420000000000D+02  .205312500000D+02  .445054252582D-08  .942262329602D+00
     .102259218693D-05  .826071738265D-02  .447034835815D-06  .515367967033D+04
     .388800000000D+06  .145286321640D-06 -.191218696985D+01 -.372529029846D-07
     .976635866175D+00  .375468750000D+03 -.606624986400D+00 -.844320883640D-08
     .928610108910D-10  .100000000000D+01  .182100000000D+04  .000000000000D+00
     .240000000000D+01  .000000000000D+00 -.135041773319D-07  .420000000000D+02
     .381606000000D+06  .400000000000D+01
32 14 12  4 12  0  0.0 -.278780702502D-03  .886757334229D-11  .000000000000D+00
     .260000000000D+02 -.122500000000D+02  .471448209139D-08  .145217411924D+01
    -.540167093277D-06  .114006658550D-01  .103749334812D-04  .515360988235D+04
     .388800000000D+06 -.104308128357D-06  .232869752879D+01  .188127160072D-06
     .947186364103D+00  .172156250000D+03 -.192728397283D-01 -.796104589523D-08
    -.785032699763D-09  .100000000000D+01  .182100000000D+04  .000000000000D+00
     .240000000000D+01  .000000000000D+00 -.325962901115D-08  .260000000000D+02
     .381606000000D+06  .400000000000D+01
 1 14 12  4 11 59 44.0 -.114804133773D-04  .341060513165D-12  .000000000000D+00
     .230000000000D+02  .328125000000D+01  .509735518245D-08  .150475965464D+01
     .271946191788D-06  .369676877744D-02  .471435487270D-05  .515366320801D+04
     .388784000000D+06  .186264514923D-07  .120377366200D+01  .132247805595D-06
     .961098609706D+00  .288187500000D+03  .446819320572D+00 -.835070498324D-08
     .653598653579D-10  .100000000000D+01  .182100000000D+04  .000000000000D+00
     .240000000000D+01  .000000000000D+00  .558793544769D-08  .230000000000D+02
     .385356000000D+06  .400000000000D+01
16 14 12  4 11 59 44.0 -.175845809281D-03  .295585778076D-11  .000000000000D+00
     .900000000000D+01 -.128218750000D+03  .375944231015D-08 -.157779027773D+01
    -.688806176186D-05  .778573600110D-02  .800564885139D-05  .515370887184D+04
     .388784000000D+06  .558793544769D-08 -.834194322582D+00 -.143423676491D-06
     .989476417493D+00  .237531250000D+03  .229669362399D+00 -.770424948434D-08
    -.108933108930D-09  .100000000000D+01  .182100000000D+04  .000000000000D+00
     .240000000000D+01  .000000000000D+00 -.102445483208D-07  .900000000000D+01
     .387126000000D+06  .400000000000D+01
 1 14 12  4 13 59 44.0 -.114776194096D-04  .341060513165D-12  .000000000000D+00
     .240000000000D+02  .120625000000D+02  .507271129879D-08  .255526060847D+01
     .622123479843D-06  .369733502157D-02  .483542680740D-05  .515366080093D+04
     .395984000000D+06 -.875443220139D-07  .120371338100D+01 -.372529029846D-07
     .961100060921D+00  .286031250000D+03  .446510924275D+00 -.820034157714D-08
     .170721396946D-09  .100000000000D+01  .182100000000D+04  .000000000000D+00
     .240000000000D+01  .000000000000D+00  .558793544769D-08  .240000000000D+02
     .388806000000D+06  .400000000000D+01
16 14 12  4 13 59 44.0 -.175824388862D-03  .295585778076D-11  .000000000000D+00
     .100000000000D+02 -.139687500000D+03  .371622622431D-08 -.527450838833D+00
    -.717118382454D-05  .778646592516D-02  .807270407677D-05  .515371195030D+04
     .395984000000D+06  .167638063431D-06 -.834249445335D+00  .372529029846D-08
     .989474672232D+00  .235343750000D+03  .229482170328D+00 -.785211278630D-08
    -.236438420038D-09  .100000000000D+01  .182100000000D+04  .000000000000D+00
     .240000000000D+01  .000000000000D+00 -.102445483208D-07  .100000000000D+02
     .388806000000D+06  .400000000000D+01
 2 14 12  4 14  0  0.0  .533882062882D-03  .216004991671D-11  .000000000000D+00
     .360000000000D+02  .543750000000D+01  .547272796109D-08 -.301756983671D+01
     .247731804848D-06  .139946714044D-01  .446662306786D-05  .515371584702D+04
     .396000000000D+06 -.372529029846D-08  .116991665694D+01 -.298023223877D-06
     .939702221501D+00  .279468750000D+03 -.236202591572D+01 -.831784647169D-08
     .123576576032D-09  .100000000000D+01  .182100000000D+04  .000000000000D+00
     .240000000000D+01  .000000000000D+00 -.204890966415D-07  .360000000000D+02
     .388806000000D+06  .400000000000D+01
 4 14 12  4 14  0  0.0 -.394647940993D-05 -.454747350886D-12  .000000000000D+00
     .960000000000D+02  .115937500000D+02  .550594363037D-08  .244179652864D+01
     .398606061935D-06  .109383520903D-01  .463612377644D-05  .515373817444D+04
     .396000000000D+06  .372529029846D-08  .118542190476D+01 -.178813934326D-06
     .938716589222D+00  .276156250000D+03  .104664329591D+01 -.834213319762D-08
     .156792245312D-09  .100000000000D+01  .182100000000D+04  .000000000000D+00
     .240000000000D+01  .000000000000D+00 -.651925802231D-08  .960000000000D+02
     .388806000000D+06  .400000000000D+01
 5 14 12  4 14  0  0.0 -.310229603201D-03  .466116034659D-11  .000000000000D+00
     .890000000000D+02 -.188437500000D+02  .482734393539D-08 -.700137216005D+00
    -.103190541267D-05  .401061121374D-02  .955909490585D-05  .515372938347D+04
     .396000000000D+06  .894069671631D-07  .223979097052D+01  .596046447754D-07
     .946631309577D+00  .188187500000D+03  .408450212402D+00 -.810105172704D-08
    -.649669918503D-09  .100000000000D+01  .182100000000D+04  .000000000000D+00
     .240000000000D+01  .000000000000D+00 -.107102096081D-07  .890000000000D+02
     .388806000000D+06  .400000000000D+01
 6 14 12  4 14  0  0.0  .207819975913D-04  .682121026330D-11  .000000000000D+00
     .700000000000D+02  .431250000000D+01  .508342603081D-08 -.748398694724D+00
     .398606061935D-06  .568195246160D-03  .483915209770D-05  .515364123154D+04
     .396000000000D+06  .800937414169D-07  .119516563844D+01 -.242143869400D-07
     .961014505083D+00  .285437500000D+03  .224764869120D+01 -.832284667997D-08
     .112147528538D-09  .100000000000D+01  .182100000000D+04  .000000000000D+00
     .240000000000D+01  .000000000000D+00  .465661287308D-08  .700000000000D+02
     .388806000000D+06  .400000000000D+01
 7 14 12  4 14  0  0.0  .418999232352D-03  .363797880709D-11  .000000000000D+00
     .400000000000D+02  .320937500000D+02  .458626246481D-08  .204911829498D+01
     .161118805408D-05  .800899160095D-02  .812113285065D-06  .515360279083D+04
     .396000000000D+06 -.145286321640D-06 -.191924047911D+01  .856816768646D-07
     .971730867165D+00  .370531250000D+03 -.275050186160D+01 -.840677874751D-08
     .628597612185D-10  .100000000000D+01  .182100000000D+04  .000000000000D+00
     .240000000000D+01  .000000000000D+00 -.111758708954D-07  .400000000000D+02
     .388806000000D+06  .400000000000D+01
 8 14 12  4 14  0  0.0  .165957026184D-04  .227373675443D-12  .000000000000D+00
     .150000000000D+02  .512500000000D+01  .390659129664D-08  .293371991915D+01
     .197440385818D-06  .147563981591D-01  .625848770142D-06  .515218859482D+04
     .396000000000D+06 -.143423676491D-06 -.181554176074D+01 -.100582838058D-06
     .995173839728D+00  .386625000000D+03 -.268232975622D+01 -.796747473445D-08
     .503592405216D-10  .100000000000D+01  .182100000000D+04  .000000000000D+00
     .240000000000D+01  .630000000000D+02 -.465661287308D-08  .150000000000D+02
     .388806000000D+06  .400000000000D+01
 9 14 12  4 14  0  0.0 -.196816399693D-04 -.864019966684D-11  .000000000000D+00
     .600000000000D+02  .114968750000D+03  .434625246743D-08 -.257162320090D+01
     .590831041336D-05  .230545410886D-03  .984035432339D-05  .515370260620D+04
     .396000000000D+06  .558793544769D-08 -.299428307454D+01 -.409781932831D-07
     .959354777709D+00  .188093750000D+03  .292350428906D+01 -.795247410961D-08
     .928610108910D-10  .100000000000D+01  .182100000000D+04  .000000000000D+00
     .240000000000D+01  .000000000000D+00  .465661287308D-09  .600000000000D+02
     .388806000000D+06  .400000000000D+01
10 14 12  4 14  0  0.0 -.152657739818D-03 -.159161572810D-11  .000000000000D+00
     .950000000000D+02 -.155312500000D+02  .508056876894D-08 -.393111441732D+00
    -.717118382454D-06  .143920959672D-01  .939518213272D-05  .515363989067D+04
     .396000000000D+06 -.428408384323D-07  .225592755235D+01  .217929482460D-06
     .941438302958D+00  .187593750000D+03  .906452625870D+00 -.844428030960D-08
    -.640383817414D-09  .100000000000D+01  .182100000000D+04  .000000000000D+00
     .240000000000D+01  .000000000000D+00 -.325962901115D-08  .950000000000D+02
     .388806000000D+06  .400000000000D+01
11 14 12  4 14  0  0.0 -.541137997061D-03 -.284217094304D-11  .000000000000D+00
     .420000000000D+02  .320000000000D+02  .647884129832D-08  .212913553833D+01
     .141374766827D-05  .156306645367D-01  .553764402866D-05  .515370952606D+04
     .396000000000D+06  .134110450745D-06  .865586313613D+00 -.283122062683D-06
     .891654173752D+00  .232093750000D+03  .136575821119D+01 -.874572143726D-08
     .455376111100D-09  .100000000000D+01  .182100000000D+04  .000000000000D+00
     .240000000000D+01  .000000000000D+00 -.121071934700D-07  .420000000000D+02
     .388806000000D+06  .400000000000D+01
12 14 12  4 14  0  0.0  .251060817391D-03  .284217094304D-11  .000000000000D+00
     .770000000000D+02 -.123093750000D+03  .376765693803D-08  .162512882923D+01
    -.651739537716D-05  .502625457011D-02  .801496207714D-05  .515377682304D+04
     .396000000000D+06 -.428408384323D-07 -.852879016577D+00  .111758708954D-06
     .988889965819D+00  .237812500000D+03  .498366017368D+00 -.780568228086D-08
    -.258225041824D-09  .100000000000D+01  .182100000000D+04  .000000000000D+00
     .240000000000D+01  .000000000000D+00 -.121071934700D-07  .770000000000D+02
     .388806000000D+06  .400000000000D+01
